ONEWEB-0216             
1 48801U 21045AL  24083.93160217  .00000178  00000+0  43775-3 0  9993
2 48801  87.8982  61.4547 0001999  74.9193 285.2158 13.15547994137115
ONEWEB-0239             
1 48802U 21045AM  24083.93635136  .00000132  00000+0  31689-3 0  9992
2 48802  87.8991  61.4217 0000947  80.5444 279.5794 13.15549829137159
ONEWEB-0249             
1 48967U 21060A   24083.83271972  .00000054  00000+0  10695-3 0  9991
2 48967  87.9126  31.0422 0001883  80.3546 279.7798 13.16595277132323
ONEWEB-0250             
1 48968U 21060B   24083.83747756 -.00000013  00000+0 -68055-4 0  9991
2 48968  87.9128  31.0249 0001536  79.6030 280.5274 13.16594538132303
ONEWEB-0252             
1 48970U 21060D   24083.86439095  .00000038  00000+0  65134-4 0  9991
2 48970  87.9129  31.0290 0001909  75.0583 285.0759 13.16593307132378
ONEWEB-0253             
1 48971U 21060E   24083.92929289  .00000195  00000+0  47719-3 0  9990
2 48971  87.9124  31.0307 0001635  73.9039 286.2271 13.16596927132319
ONEWEB-0254             
1 48972U 21060F   24083.86280562 -.00000035  00000+0 -12570-3 0  9990
2 48972  87.9128  31.0190 0001622  71.6567 288.4740 13.16594972132303
ONEWEB-0255             
1 48973U 21060G   24083.82481233  .00000045  00000+0  84874-4 0  9991
2 48973  87.9127  31.0618 0001799  81.7013 278.4322 13.16594493132371
